{"type":"FeatureCollection","features":[{"type":"Feature","properties":{"organization":"Access Soup Kitchen","address":"311 W. Second Street","city":"Frankfort","zipcode":40601,"state":"KY","program_type":"Recipient","addrtype":"premise","addrlocat":"ROOFTOP"},"geometry":{"type":"Point","coordinates":[-84.8783085,38.1948393]}},{"type":"Feature","properties":{"organization":"Amen House","address":"319 East Main Street","city":"Georgetown","zipcode":40324,"state":"KY","program_type":"Recipient","addrtype":"street_address","addrlocat":"RANGE_INTERPOLATED"},"geometry":{"type":"Point","coordinates":[-84.5563211,38.2097444]}},{"type":"Feature","properties":{"organization":"Arbor Youth Services","address":"540 West Third Street","city":"Lexington","zipcode":40508,"state":"KY","program_type":"Recipient","addrtype":"street_address","addrlocat":"ROOFTOP"},"geometry":{"type":"Point","coordinates":[-84.500394,38.056139]}},{"type":"Feature","properties":{"organization":"Baby Health Services Inc","address":"1590 Harrodsburg Road","city":"Lexington","zipcode":40505,"state":"KY","program_type":"Recipient","addrtype":"premise","addrlocat":"ROOFTOP"},"geometry":{"type":"Point","coordinates":[-84.5251807,38.0322359]}},{"type":"Feature","properties":{"organization":"Backpack Program - Booker T. Washington Academy","address":"707 Howard Street","city":"Lexington","zipcode":40508,"state":"KY","program_type":"Recipient","addrtype":"street_address","addrlocat":"ROOFTOP"},"geometry":{"type":"Point","coordinates":[-84.500395,38.069344]}},{"type":"Feature","properties":{"organization":"Backpack Program - Lemmons Mill Elementary","address":"300 School House Road","city":"Georgetown","zipcode":40324,"state":"KY","program_type":"Recipient","addrtype":"street_address","addrlocat":"ROOFTOP"},"geometry":{"type":"Point","coordinates":[-84.540163,38.1868404]}},{"type":"Feature","properties":{"organization":"Backpack Program - Southern Elementary","address":"340 Wilson Downing Road","city":"Lexington","zipcode":40517,"state":"KY","program_type":"Recipient","addrtype":"street_address","addrlocat":"ROOFTOP"},"geometry":{"type":"Point","coordinates":[-84.513986,37.980008]}},{"type":"Feature","properties":{"organization":"Ballard-Griffith Towers","address":"650 Tower Plaza","city":"Lexington","zipcode":40508,"state":"KY","program_type":"Recipient","addrtype":"street_address","addrlocat":"ROOFTOP"},"geometry":{"type":"Point","coordinates":[-84.5018124,38.0542364]}},{"type":"Feature","properties":{"organization":"Blue Grass Farm Charities","address":"340 Legion Drive","city":"Lexington","zipcode":40504,"state":"KY","program_type":"Recipient","addrtype":"premise","addrlocat":"ROOFTOP"},"geometry":{"type":"Point","coordinates":[-84.5203035,38.0339724]}},{"type":"Feature","properties":{"organization":"Bob Brown House","address":"507 Rogers Road","city":"Lexington","zipcode":40505,"state":"KY","program_type":"Recipient","addrtype":"street_address","addrlocat":"RANGE_INTERPOLATED"},"geometry":{"type":"Point","coordinates":[-84.4526571,38.0847781]}},{"type":"Feature","properties":{"organization":"Calvary Church of Nazarene","address":"1142 Caywood Drive","city":"Lexington","zipcode":40504,"state":"KY","program_type":"Recipient","addrtype":"street_address","addrlocat":"ROOFTOP"},"geometry":{"type":"Point","coordinates":[-84.552097,38.057163]}},{"type":"Feature","properties":{"organization":"Catholic Action Center","address":"400 East Fifth Street","city":"Lexington","zipcode":40508,"state":"KY","program_type":"Recipient","addrtype":"premise","addrlocat":"ROOFTOP"},"geometry":{"type":"Point","coordinates":[-84.4835364,38.0477112]}},{"type":"Feature","properties":{"organization":"Chrysalis House","address":"1589 Hill Rise Drive","city":"Lexington","zipcode":40504,"state":"KY","program_type":"Recipient","addrtype":"premise","addrlocat":"ROOFTOP"},"geometry":{"type":"Point","coordinates":[-84.5303871,38.047467]}},{"type":"Feature","properties":{"organization":"Church of God","address":"124 Gano Avenue","city":"Georgetown","zipcode":40324,"state":"KY","program_type":"Recipient","addrtype":"street_address","addrlocat":"RANGE_INTERPOLATED"},"geometry":{"type":"Point","coordinates":[-84.5589797,38.2168111]}},{"type":"Feature","properties":{"organization":"Church Under the Bridge","address":"203 East Fourth Street","city":"Lexington","zipcode":40508,"state":"KY","program_type":"Recipient","addrtype":"street_address","addrlocat":"ROOFTOP"},"geometry":{"type":"Point","coordinates":[-84.488282,38.049463]}},{"type":"Feature","properties":{"organization":"Community Action Council","address":"1169 Winburn Drive","city":"Lexington","zipcode":40511,"state":"KY","program_type":"Recipient","addrtype":"premise","addrlocat":"ROOFTOP"},"geometry":{"type":"Point","coordinates":[-84.4733239,38.08887]}},{"type":"Feature","properties":{"organization":"E7 Kids Cafe","address":"530 North Martin Luther King Blvd","city":"Lexington","zipcode":40508,"state":"KY","program_type":"Recipient","addrtype":"premise","addrlocat":"ROOFTOP"},"geometry":{"type":"Point","coordinates":[-84.485558,38.0516155]}},{"type":"Feature","properties":{"organization":"Embrace United Methodist, Church","address":"1015 North Limestone","city":"Lexington","zipcode":40505,"state":"KY","program_type":"Recipient","addrtype":"premise","addrlocat":"ROOFTOP"},"geometry":{"type":"Point","coordinates":[-84.4789623,38.05964]}},{"type":"Feature","properties":{"organization":"F&D Market","address":"573 Elm Tree Lane","city":"Lexington","zipcode":40508,"state":"KY","program_type":"Recipient","addrtype":"street_address","addrlocat":"RANGE_INTERPOLATED"},"geometry":{"type":"Point","coordinates":[-84.4829381,38.0506469]}},{"type":"Feature","properties":{"organization":"Family Care Center","address":"1135 Red Mile Place","city":"Lexington","zipcode":40504,"state":"KY","program_type":"Recipient","addrtype":"street_address","addrlocat":"RANGE_INTERPOLATED"},"geometry":{"type":"Point","coordinates":[-84.525104,38.0460521]}},{"type":"Feature","properties":{"organization":"First Presbyterian Church","address":"171 Market Street","city":"Lexington","zipcode":40507,"state":"KY","program_type":"Recipient","addrtype":"premise","addrlocat":"ROOFTOP"},"geometry":{"type":"Point","coordinates":[-84.4967214,38.0492621]}},{"type":"Feature","properties":{"organization":"FoodChain","address":"501 West Sixth Street","city":"Lexington","zipcode":40508,"state":"KY","program_type":"Recipient","addrtype":"premise","addrlocat":"ROOFTOP"},"geometry":{"type":"Point","coordinates":[-84.4918931,38.0597814]}},{"type":"Feature","properties":{"organization":"Franklin County Council on Family Abuse","address":"231 Hanna Place","city":"Frankfort","zipcode":40601,"state":"KY","program_type":"Recipient","addrtype":"street_address","addrlocat":"ROOFTOP"},"geometry":{"type":"Point","coordinates":[-84.8768667,38.1938134]}},{"type":"Feature","properties":{"organization":"Franklin County Emergency Food Pantry","address":"102 Lakeview Court","city":"Frankfort","zipcode":40601,"state":"KY","program_type":"Recipient","addrtype":"street_address","addrlocat":"RANGE_INTERPOLATED"},"geometry":{"type":"Point","coordinates":[-84.8186235,38.2161787]}},{"type":"Feature","properties":{"organization":"Franklin County Senior Citizen Center","address":"202 Medical Heights Drive","city":"Frankfort","zipcode":40601,"state":"KY","program_type":"Recipient","addrtype":"street_address","addrlocat":"RANGE_INTERPOLATED"},"geometry":{"type":"Point","coordinates":[-84.9035989,38.1594664]}},{"type":"Feature","properties":{"organization":"Gods Pantry Food Bank","address":"16185 Jaggie Fox Way","city":"Lexington","zipcode":40511,"state":"KY","program_type":"Recipient","addrtype":"route","addrlocat":"GEOMETRIC_CENTER"},"geometry":{"type":"Point","coordinates":[-84.5180761,38.0898835]}},{"type":"Feature","properties":{"organization":"Grace Baptist Church","address":"811 Bryan Avenue","city":"Lexington","zipcode":40505,"state":"KY","program_type":"Recipient","addrtype":"premise","addrlocat":"ROOFTOP"},"geometry":{"type":"Point","coordinates":[-84.4797425,38.0566015]}},{"type":"Feature","properties":{"organization":"Grace Fellowship","address":"4514 Briar Hill Road","city":"Lexington","zipcode":40516,"state":"KY","program_type":"Recipient","addrtype":"street_address","addrlocat":"ROOFTOP"},"geometry":{"type":"Point","coordinates":[-84.356029,38.066488]}},{"type":"Feature","properties":{"organization":"Greenhouse17","address":"4400 Briar Hill Road","city":"Lexington","zipcode":40516,"state":"KY","program_type":"Recipient","addrtype":"street_address","addrlocat":"ROOFTOP"},"geometry":{"type":"Point","coordinates":[-84.3581729,38.064669]}},{"type":"Feature","properties":{"organization":"Harrison Elementary School","address":"161 Bruce Street","city":"Lexington","zipcode":40507,"state":"KY","program_type":"Recipient","addrtype":"premise","addrlocat":"ROOFTOP"},"geometry":{"type":"Point","coordinates":[-84.5006223,38.052528]}},{"type":"Feature","properties":{"organization":"Hope Center (Jacobs Cafeteria)","address":"299 West Loudon Avenue","city":"Lexington","zipcode":40508,"state":"KY","program_type":"Recipient","addrtype":"street_address","addrlocat":"ROOFTOP"},"geometry":{"type":"Point","coordinates":[-84.4909179,38.063241]}},{"type":"Feature","properties":{"organization":"Hope Center (Privett Center)","address":"250 West Loudon Avenue","city":"Lexington","zipcode":40508,"state":"KY","program_type":"Recipient","addrtype":"street_address","addrlocat":"ROOFTOP"},"geometry":{"type":"Point","coordinates":[-84.489327,38.062686]}},{"type":"Feature","properties":{"organization":"Irishtown Baptist Mission","address":"245 Perry Street","city":"Lexington","zipcode":40508,"state":"KY","program_type":"Recipient","addrtype":"street_address","addrlocat":"RANGE_INTERPOLATED"},"geometry":{"type":"Point","coordinates":[-84.5122168,38.0522735]}},{"type":"Feature","properties":{"organization":"Justice House (Elm Tree Lane)","address":"552 Elm Tree Lane","city":"Lexington","zipcode":40507,"state":"KY","program_type":"Recipient","addrtype":"street_address","addrlocat":"ROOFTOP"},"geometry":{"type":"Point","coordinates":[-84.48295,38.050191]}},{"type":"Feature","properties":{"organization":"Kentucky Refugee Ministries","address":"1206 North Limestone","city":"Lexington","zipcode":40505,"state":"KY","program_type":"Recipient","addrtype":"premise","addrlocat":"ROOFTOP"},"geometry":{"type":"Point","coordinates":[-84.4754668,38.0611189]}},{"type":"Feature","properties":{"organization":"Lexington Market East End","address":"503 East Third Street","city":"Lexington","zipcode":40508,"state":"KY","program_type":"Recipient","addrtype":"premise","addrlocat":"ROOFTOP"},"geometry":{"type":"Point","coordinates":[-84.4851501,38.0445375]}},{"type":"Feature","properties":{"organization":"Lexington Rescue Mission","address":"444 Glen Arvin Avenue","city":"Lexington","zipcode":40508,"state":"KY","program_type":"Recipient","addrtype":"premise","addrlocat":"ROOFTOP"},"geometry":{"type":"Point","coordinates":[-84.5040052,38.0649409]}},{"type":"Feature","properties":{"organization":"Lexington Senior Citizen Center","address":"1530 Nicholasville Road","city":"Lexington","zipcode":40503,"state":"KY","program_type":"Recipient","addrtype":"street_address","addrlocat":"ROOFTOP"},"geometry":{"type":"Point","coordinates":[-84.511411,38.023136]}},{"type":"Feature","properties":{"organization":"Lighthouse Ministries","address":"185 Elm Tree Lane","city":"Lexington","zipcode":40507,"state":"KY","program_type":"Recipient","addrtype":"premise","addrlocat":"ROOFTOP"},"geometry":{"type":"Point","coordinates":[-84.4908178,38.0454242]}},{"type":"Feature","properties":{"organization":"Main Street Baptist Church","address":"582 West Main Street","city":"Lexington","zipcode":40507,"state":"KY","program_type":"Recipient","addrtype":"street_address","addrlocat":"ROOFTOP"},"geometry":{"type":"Point","coordinates":[-84.503232,38.051278]}},{"type":"Feature","properties":{"organization":"Maxwell Street Presbyterian Church","address":"180 East Maxwell Street","city":"Lexington","zipcode":40508,"state":"KY","program_type":"Recipient","addrtype":"premise","addrlocat":"ROOFTOP"},"geometry":{"type":"Point","coordinates":[-84.4997282,38.0414279]}},{"type":"Feature","properties":{"organization":"Midway Christian Church","address":"123 East Bruen Street","city":"Midway","zipcode":40347,"state":"KY","program_type":"Recipient","addrtype":"street_address","addrlocat":"RANGE_INTERPOLATED"},"geometry":{"type":"Point","coordinates":[-84.6850825,38.1499003]}},{"type":"Feature","properties":{"organization":"Mobile Home Park - Eastland","address":"1081 East New Circle Road","city":"Lexington","zipcode":40505,"state":"KY","program_type":"Recipient","addrtype":"street_address","addrlocat":"ROOFTOP"},"geometry":{"type":"Point","coordinates":[-84.4523032,38.0353105]}},{"type":"Feature","properties":{"organization":"Mobile Home Park Imperial","address":"115 West Loudon Avenue","city":"Lexington","zipcode":40508,"state":"KY","program_type":"Recipient","addrtype":"street_address","addrlocat":"ROOFTOP"},"geometry":{"type":"Point","coordinates":[-84.4819857,38.0592875]}},{"type":"Feature","properties":{"organization":"Moveable Feast","address":"474 Silver Maple Way","city":"Lexington","zipcode":40508,"state":"KY","program_type":"Recipient","addrtype":"street_address","addrlocat":"ROOFTOP"},"geometry":{"type":"Point","coordinates":[-84.485764,38.049818]}},{"type":"Feature","properties":{"organization":"Napali Refugee Community","address":"110 Wilson Downing Road","city":"Lexington","zipcode":40517,"state":"KY","program_type":"Recipient","addrtype":"premise","addrlocat":"ROOFTOP"},"geometry":{"type":"Point","coordinates":[-84.5258218,37.9848843]}},{"type":"Feature","properties":{"organization":"Nathaniel Mission","address":"1109 Versailles Road","city":"Lexington","zipcode":40508,"state":"KY","program_type":"Recipient","addrtype":"street_address","addrlocat":"ROOFTOP"},"geometry":{"type":"Point","coordinates":[-84.5165432,38.0506963]}},{"type":"Feature","properties":{"organization":"Neighborhood Ambassador (Rosie)","address":"124 Alabama Avenue","city":"Lexington","zipcode":40508,"state":"KY","program_type":"Recipient","addrtype":"premise","addrlocat":"ROOFTOP"},"geometry":{"type":"Point","coordinates":[-84.4843824,38.0542039]}},{"type":"Feature","properties":{"organization":"Picadome Elementary School","address":"1642 Harrodsburg Road","city":"Lexington","zipcode":40504,"state":"KY","program_type":"Recipient","addrtype":"street_address","addrlocat":"ROOFTOP"},"geometry":{"type":"Point","coordinates":[-84.5270827,38.0302549]}},{"type":"Feature","properties":{"organization":"Ponderosa and Spindletop Mobile Home Parks","address":"101 Dale Drive","city":"Georgetown","zipcode":40324,"state":"KY","program_type":"Recipient","addrtype":"street_address","addrlocat":"ROOFTOP"},"geometry":{"type":"Point","coordinates":[-84.5438548,38.1596287]}},{"type":"Feature","properties":{"organization":"Salvation Army","address":"736 West Main Street","city":"Lexington","zipcode":40508,"state":"KY","program_type":"Recipient","addrtype":"premise","addrlocat":"ROOFTOP"},"geometry":{"type":"Point","coordinates":[-84.505347,38.0528818]}},{"type":"Feature","properties":{"organization":"Sayre Christian Village","address":"3775 Belleau Wood Dr","city":"Lexington","zipcode":40517,"state":"KY","program_type":"Recipient","addrtype":"street_address","addrlocat":"RANGE_INTERPOLATED"},"geometry":{"type":"Point","coordinates":[-84.5055836,37.9729054]}},{"type":"Feature","properties":{"organization":"Scotland Woods","address":"134 North Broadway Street","city":"Georgetown","zipcode":40324,"state":"KY","program_type":"Recipient","addrtype":"premise","addrlocat":"ROOFTOP"},"geometry":{"type":"Point","coordinates":[-84.5594845,38.2107982]}},{"type":"Feature","properties":{"organization":"Shiloh Baptist Church","address":"237 East Fifth Street","city":"Lexington","zipcode":40508,"state":"KY","program_type":"Recipient","addrtype":"premise","addrlocat":"ROOFTOP"},"geometry":{"type":"Point","coordinates":[-84.4852464,38.0500905]}},{"type":"Feature","properties":{"organization":"St. Michaels Episcopal Church Backpack Program","address":"2025 Bellefonte Drive","city":"Lexington","zipcode":40503,"state":"KY","program_type":"Recipient","addrtype":"street_address","addrlocat":"ROOFTOP"},"geometry":{"type":"Point","coordinates":[-84.507957,38.003403]}},{"type":"Feature","properties":{"organization":"St. Vincent de Paul Emergency Food Pantry","address":"315 Wallace Avenue","city":"Frankfort","zipcode":40501,"state":"KY","program_type":"Recipient","addrtype":"street_address","addrlocat":"ROOFTOP"},"geometry":{"type":"Point","coordinates":[-84.8659586,38.202829]}},{"type":"Feature","properties":{"organization":"The Learning Center at Linlee","address":"2420 Spurr Road","city":"Lexington","zipcode":40501,"state":"KY","program_type":"Recipient","addrtype":"premise","addrlocat":"ROOFTOP"},"geometry":{"type":"Point","coordinates":[-84.5173089,38.1038786]}},{"type":"Feature","properties":{"organization":"The Nest","address":"530 North Limestone","city":"Lexington","zipcode":40508,"state":"KY","program_type":"Recipient","addrtype":"street_address","addrlocat":"ROOFTOP"},"geometry":{"type":"Point","coordinates":[-84.487131,38.052043]}},{"type":"Feature","properties":{"organization":"UK Campus Kitchens","address":"140 Patterson Drive","city":"Lexington","zipcode":40506,"state":"KY","program_type":"Recipient","addrtype":"street_address","addrlocat":"ROOFTOP"},"geometry":{"type":"Point","coordinates":[-84.5037787,38.0381125]}},{"type":"Feature","properties":{"organization":"Valley Park","address":"2077 Cambridge Drive","city":"Lexington","zipcode":40504,"state":"KY","program_type":"Recipient","addrtype":"street_address","addrlocat":"ROOFTOP"},"geometry":{"type":"Point","coordinates":[-84.551321,38.054738]}},{"type":"Feature","properties":{"organization":"Veterans Homes - Devine Providence","address":"1101 Veterans Drive","city":"Lexington","zipcode":40502,"state":"KY","program_type":"Recipient","addrtype":"street_address","addrlocat":"ROOFTOP"},"geometry":{"type":"Point","coordinates":[-84.506738,38.029732]}},{"type":"Feature","properties":{"organization":"Whole Foods","address":"161 Lexington Green Circle","city":"Lexington","zipcode":40503,"state":"KY","program_type":"Source","addrtype":"premise","addrlocat":"ROOFTOP"},"geometry":{"type":"Point","coordinates":[-84.5246782,37.9944286]}},{"type":"Feature","properties":{"organization":"Lucky's","address":"1030 S Broadway","city":"Lexington","zipcode":40504,"state":"KY","program_type":"Source","addrtype":"street_address","addrlocat":"ROOFTOP"},"geometry":{"type":"Point","coordinates":[-84.5157956,38.0365705]}},{"type":"Feature","properties":{"organization":"Fresh Thyme","address":"125 East Reynolds Road","city":"Lexington","zipcode":40517,"state":"KY","program_type":"Source","addrtype":"premise","addrlocat":"ROOFTOP"},"geometry":{"type":"Point","coordinates":[-84.5215236,37.9913675]}},{"type":"Feature","properties":{"organization":"Fresh Market","address":"3387 Tates Creek Road","city":"Lexington","zipcode":40502,"state":"KY","program_type":"Source","addrtype":"street_address","addrlocat":"ROOFTOP"},"geometry":{"type":"Point","coordinates":[-84.4963606,37.9943605]}},{"type":"Feature","properties":{"organization":"UK Horticulture Research Farm","address":"4320 Emmert Farm Lane","city":"Lexington","zipcode":40514,"state":"KY","program_type":"Source","addrtype":"street_address","addrlocat":"ROOFTOP"},"geometry":{"type":"Point","coordinates":[-84.534649,37.974226]}},{"type":"Feature","properties":{"organization":"Lexington Farmers Market","address":"396 Southland Drive","city":"Lexington","zipcode":40503,"state":"KY","program_type":"Source","addrtype":"premise","addrlocat":"ROOFTOP"},"geometry":{"type":"Point","coordinates":[-84.5267079,38.0172128]}},{"type":"Feature","properties":{"organization":"Bluegrass Farmers Market","address":"1841 Plaudit Place","city":"Lexington","zipcode":40509,"state":"KY","program_type":"Source","addrtype":"street_address","addrlocat":"ROOFTOP"},"geometry":{"type":"Point","coordinates":[-84.419488,38.015172]}},{"type":"Feature","properties":{"marker-color":"#7e7e7e","marker-size":"medium","marker-symbol":"","organization":"GleanKY Offices","address":"501 West Sixth Street","city":"Lexington","zipcode":40508,"state":"KY", "program_type":"Office"},"geometry":{"type":"Point","coordinates":[-84.49223399162292,38.05966513309733]}}]}